[{"OBJECT_NAME":"STARLINK-11564 [DTC]","OBJECT_ID":"2025-027G","EPOCH":"2026-03-09T03:22:04.935360","MEAN_MOTION":15.70864373,"ECCENTRICITY":0.00022641,"INCLINATION":43.0022,"RA_OF_ASC_NODE":351.159,"ARG_OF_PERICENTER":268.3275,"MEAN_ANOMALY":91.7334,"EPHEMERIS_TYPE":0,"CLASSIFICATION_TYPE":"U","NORAD_CAT_ID":62913,"ELEMENT_SET_NO":999,"REV_AT_EPOCH":6306,"BSTAR":0.0014085618,"MEAN_MOTION_DOT":0.00184552,"MEAN_MOTION_DDOT":0},{"OBJECT_NAME":"FENGYUN 1C DEB","OBJECT_ID":"1999-025CUE","EPOCH":"2026-02-18T09:12:07.487136","MEAN_MOTION":15.64460458,"ECCENTRICITY":0.00384301,"INCLINATION":98.1181,"RA_OF_ASC_NODE":202.4936,"ARG_OF_PERICENTER":104.8925,"MEAN_ANOMALY":255.6593,"EPHEMERIS_TYPE":0,"CLASSIFICATION_TYPE":"U","NORAD_CAT_ID":32184,"ELEMENT_SET_NO":999,"REV_AT_EPOCH":99453,"BSTAR":0.002023567,"MEAN_MOTION_DOT":0.00206139,"MEAN_MOTION_DDOT":0}]
